KUIPER-00191            
1 67143U 25301L   26015.02986686  .00012301  00000+0  35574-3 0  9994
2 67143  51.8685 324.6046 0006666 192.6277 167.4543 15.35995698  5510
KUIPER-00196            
1 67144U 25301M   26015.01427585  .00025298  00000+0  70399-3 0  9995
2 67144  51.8739 324.5116 0003002 161.7829 198.3266 15.36663385  5486
KUIPER-00204            
1 67145U 25301N   26015.16670139  .00010004  00000+0  41954-3 0  9991
2 67145  51.8828 324.2801 0004617 124.6110  83.3926 15.24080677  5613
KUIPER-00210            
1 67146U 25301P   26015.11430891  .00017102  00000+0  50683-3 0  9991
2 67146  51.8630 324.4006 0010469 217.8219 142.2032 15.34903996  5668
KUIPER-00221            
1 67147U 25301Q   26015.16670139  .00010142  00000+0  33187-3 0  9995
2 67147  51.8733 323.9136 0004904 156.4144 263.8921 15.32276443  4993
KUIPER-00232            
1 67148U 25301R   26015.06657674  .00018582  00000+0  51159-3 0  9999
2 67148  51.8740 324.1136 0002600 115.0314 245.0943 15.37195210  5495
KUIPER-00241            
1 67149U 25301S   26015.07489465  .00018871  00000+0  52443-3 0  9990
2 67149  51.8747 324.1678 0003123 151.5777 208.5381 15.36892421  5827
KUIPER-00245            
1 67150U 25301T   26015.16670139 -.00001716  00000+0 -62050-4 0  9990
2 67150  51.8793 324.3930 0008201 187.9535 320.5968 15.20770802  4994
KUIPER-00246            
1 67151U 25301U   26015.01530014  .00019161  00000+0  53686-3 0  9997
2 67151  51.8746 324.5184 0004067 166.8367 193.2726 15.36623850  5503
KUIPER-00247            
1 67152U 25301V   26015.11879353  .00014346  00000+0  43164-3 0  9991
2 67152  51.8663 324.4361 0011173 218.9416 141.0765 15.34563054  5497
KUIPER-00248            
1 67153U 25301W   26015.10446512  .00016361  00000+0  47820-3 0  9990
2 67153  51.8708 324.3530 0008305 202.3968 157.6656 15.35394862  5668
KUIPER-00249            
1 67154U 25301X   26015.03508546  .00022512  00000+0  64572-3 0  9997
2 67154  51.8678 324.6349 0008363 200.6614 159.4035 15.35760507  5483
