CCSDS_OMM_VERS = 2.0
CREATION_DATE  = 
ORIGINATOR     = 

OBJECT_NAME    = KUIPER-00191
OBJECT_ID      = 2025-301L
CENTER_NAME    = EARTH
REF_FRAME      = TEME
TIME_SYSTEM    = UTC
MEAN_ELEMENT_THEORY = SGP/SGP4

EPOCH          = 2026-01-15T00:43:00.496704
MEAN_MOTION    = 15.35995698
ECCENTRICITY   = .0006666
INCLINATION    = 51.8685
RA_OF_ASC_NODE = 324.6046
ARG_OF_PERICENTER = 192.6277
MEAN_ANOMALY   = 167.4543

EPHEMERIS_TYPE = 0
CLASSIFICATION_TYPE = U
NORAD_CAT_ID   = 67143
ELEMENT_SET_NO = 999
REV_AT_EPOCH   = 551
BSTAR          = .35574E-3
MEAN_MOTION_DOT = .12301E-3
MEAN_MOTION_DDOT = 0

CCSDS_OMM_VERS = 2.0
CREATION_DATE  = 
ORIGINATOR     = 

OBJECT_NAME    = KUIPER-00196
OBJECT_ID      = 2025-301M
CENTER_NAME    = EARTH
REF_FRAME      = TEME
TIME_SYSTEM    = UTC
MEAN_ELEMENT_THEORY = SGP/SGP4

EPOCH          = 2026-01-15T00:20:33.433440
MEAN_MOTION    = 15.36663385
ECCENTRICITY   = .0003002
INCLINATION    = 51.8739
RA_OF_ASC_NODE = 324.5116
ARG_OF_PERICENTER = 161.7829
MEAN_ANOMALY   = 198.3266

EPHEMERIS_TYPE = 0
CLASSIFICATION_TYPE = U
NORAD_CAT_ID   = 67144
ELEMENT_SET_NO = 999
REV_AT_EPOCH   = 548
BSTAR          = .70399E-3
MEAN_MOTION_DOT = .25298E-3
MEAN_MOTION_DDOT = 0

CCSDS_OMM_VERS = 2.0
CREATION_DATE  = 
ORIGINATOR     = 

OBJECT_NAME    = KUIPER-00204
OBJECT_ID      = 2025-301N
CENTER_NAME    = EARTH
REF_FRAME      = TEME
TIME_SYSTEM    = UTC
MEAN_ELEMENT_THEORY = SGP/SGP4

EPOCH          = 2026-01-15T04:00:03.000096
MEAN_MOTION    = 15.24080677
ECCENTRICITY   = .0004617
INCLINATION    = 51.8828
RA_OF_ASC_NODE = 324.2801
ARG_OF_PERICENTER = 124.6110
MEAN_ANOMALY   = 83.3926

EPHEMERIS_TYPE = 0
CLASSIFICATION_TYPE = U
NORAD_CAT_ID   = 67145
ELEMENT_SET_NO = 999
REV_AT_EPOCH   = 561
BSTAR          = .41954E-3
MEAN_MOTION_DOT = .10004E-3
MEAN_MOTION_DDOT = 0

CCSDS_OMM_VERS = 2.0
CREATION_DATE  = 
ORIGINATOR     = 

OBJECT_NAME    = KUIPER-00210
OBJECT_ID      = 2025-301P
CENTER_NAME    = EARTH
REF_FRAME      = TEME
TIME_SYSTEM    = UTC
MEAN_ELEMENT_THEORY = SGP/SGP4

EPOCH          = 2026-01-15T02:44:36.289824
MEAN_MOTION    = 15.34903996
ECCENTRICITY   = .0010469
INCLINATION    = 51.8630
RA_OF_ASC_NODE = 324.4006
ARG_OF_PERICENTER = 217.8219
MEAN_ANOMALY   = 142.2032

EPHEMERIS_TYPE = 0
CLASSIFICATION_TYPE = U
NORAD_CAT_ID   = 67146
ELEMENT_SET_NO = 999
REV_AT_EPOCH   = 566
BSTAR          = .50683E-3
MEAN_MOTION_DOT = .17102E-3
MEAN_MOTION_DDOT = 0

CCSDS_OMM_VERS = 2.0
CREATION_DATE  = 
ORIGINATOR     = 

OBJECT_NAME    = KUIPER-00221
OBJECT_ID      = 2025-301Q
CENTER_NAME    = EARTH
REF_FRAME      = TEME
TIME_SYSTEM    = UTC
MEAN_ELEMENT_THEORY = SGP/SGP4

EPOCH          = 2026-01-15T04:00:03.000096
MEAN_MOTION    = 15.32276443
ECCENTRICITY   = .0004904
INCLINATION    = 51.8733
RA_OF_ASC_NODE = 323.9136
ARG_OF_PERICENTER = 156.4144
MEAN_ANOMALY   = 263.8921

EPHEMERIS_TYPE = 0
CLASSIFICATION_TYPE = U
NORAD_CAT_ID   = 67147
ELEMENT_SET_NO = 999
REV_AT_EPOCH   = 499
BSTAR          = .33187E-3
MEAN_MOTION_DOT = .10142E-3
MEAN_MOTION_DDOT = 0

CCSDS_OMM_VERS = 2.0
CREATION_DATE  = 
ORIGINATOR     = 

OBJECT_NAME    = KUIPER-00232
OBJECT_ID      = 2025-301R
CENTER_NAME    = EARTH
REF_FRAME      = TEME
TIME_SYSTEM    = UTC
MEAN_ELEMENT_THEORY = SGP/SGP4

EPOCH          = 2026-01-15T01:35:52.230336
MEAN_MOTION    = 15.37195210
ECCENTRICITY   = .00026
INCLINATION    = 51.8740
RA_OF_ASC_NODE = 324.1136
ARG_OF_PERICENTER = 115.0314
MEAN_ANOMALY   = 245.0943

EPHEMERIS_TYPE = 0
CLASSIFICATION_TYPE = U
NORAD_CAT_ID   = 67148
ELEMENT_SET_NO = 999
REV_AT_EPOCH   = 549
BSTAR          = .51159E-3
MEAN_MOTION_DOT = .18582E-3
MEAN_MOTION_DDOT = 0

CCSDS_OMM_VERS = 2.0
CREATION_DATE  = 
ORIGINATOR     = 

OBJECT_NAME    = KUIPER-00241
OBJECT_ID      = 2025-301S
CENTER_NAME    = EARTH
REF_FRAME      = TEME
TIME_SYSTEM    = UTC
MEAN_ELEMENT_THEORY = SGP/SGP4

EPOCH          = 2026-01-15T01:47:50.897760
MEAN_MOTION    = 15.36892421
ECCENTRICITY   = .0003123
INCLINATION    = 51.8747
RA_OF_ASC_NODE = 324.1678
ARG_OF_PERICENTER = 151.5777
MEAN_ANOMALY   = 208.5381

EPHEMERIS_TYPE = 0
CLASSIFICATION_TYPE = U
NORAD_CAT_ID   = 67149
ELEMENT_SET_NO = 999
REV_AT_EPOCH   = 582
BSTAR          = .52443E-3
MEAN_MOTION_DOT = .18871E-3
MEAN_MOTION_DDOT = 0

CCSDS_OMM_VERS = 2.0
CREATION_DATE  = 
ORIGINATOR     = 

OBJECT_NAME    = KUIPER-00245
OBJECT_ID      = 2025-301T
CENTER_NAME    = EARTH
REF_FRAME      = TEME
TIME_SYSTEM    = UTC
MEAN_ELEMENT_THEORY = SGP/SGP4

EPOCH          = 2026-01-15T04:00:03.000096
MEAN_MOTION    = 15.20770802
ECCENTRICITY   = .0008201
INCLINATION    = 51.8793
RA_OF_ASC_NODE = 324.3930
ARG_OF_PERICENTER = 187.9535
MEAN_ANOMALY   = 320.5968

EPHEMERIS_TYPE = 0
CLASSIFICATION_TYPE = U
NORAD_CAT_ID   = 67150
ELEMENT_SET_NO = 999
REV_AT_EPOCH   = 499
BSTAR          = -.6205E-4
MEAN_MOTION_DOT = -.1716E-4
MEAN_MOTION_DDOT = 0

CCSDS_OMM_VERS = 2.0
CREATION_DATE  = 
ORIGINATOR     = 

OBJECT_NAME    = KUIPER-00246
OBJECT_ID      = 2025-301U
CENTER_NAME    = EARTH
REF_FRAME      = TEME
TIME_SYSTEM    = UTC
MEAN_ELEMENT_THEORY = SGP/SGP4

EPOCH          = 2026-01-15T00:22:01.932096
MEAN_MOTION    = 15.36623850
ECCENTRICITY   = .0004067
INCLINATION    = 51.8746
RA_OF_ASC_NODE = 324.5184
ARG_OF_PERICENTER = 166.8367
MEAN_ANOMALY   = 193.2726

EPHEMERIS_TYPE = 0
CLASSIFICATION_TYPE = U
NORAD_CAT_ID   = 67151
ELEMENT_SET_NO = 999
REV_AT_EPOCH   = 550
BSTAR          = .53686E-3
MEAN_MOTION_DOT = .19161E-3
MEAN_MOTION_DDOT = 0

CCSDS_OMM_VERS = 2.0
CREATION_DATE  = 
ORIGINATOR     = 

OBJECT_NAME    = KUIPER-00247
OBJECT_ID      = 2025-301V
CENTER_NAME    = EARTH
REF_FRAME      = TEME
TIME_SYSTEM    = UTC
MEAN_ELEMENT_THEORY = SGP/SGP4

EPOCH          = 2026-01-15T02:51:03.760992
MEAN_MOTION    = 15.34563054
ECCENTRICITY   = .0011173
INCLINATION    = 51.8663
RA_OF_ASC_NODE = 324.4361
ARG_OF_PERICENTER = 218.9416
MEAN_ANOMALY   = 141.0765

EPHEMERIS_TYPE = 0
CLASSIFICATION_TYPE = U
NORAD_CAT_ID   = 67152
ELEMENT_SET_NO = 999
REV_AT_EPOCH   = 549
BSTAR          = .43164E-3
MEAN_MOTION_DOT = .14346E-3
MEAN_MOTION_DDOT = 0

CCSDS_OMM_VERS = 2.0
CREATION_DATE  = 
ORIGINATOR     = 

OBJECT_NAME    = KUIPER-00248
OBJECT_ID      = 2025-301W
CENTER_NAME    = EARTH
REF_FRAME      = TEME
TIME_SYSTEM    = UTC
MEAN_ELEMENT_THEORY = SGP/SGP4

EPOCH          = 2026-01-15T02:30:25.786368
MEAN_MOTION    = 15.35394862
ECCENTRICITY   = .0008305
INCLINATION    = 51.8708
RA_OF_ASC_NODE = 324.3530
ARG_OF_PERICENTER = 202.3968
MEAN_ANOMALY   = 157.6656

EPHEMERIS_TYPE = 0
CLASSIFICATION_TYPE = U
NORAD_CAT_ID   = 67153
ELEMENT_SET_NO = 999
REV_AT_EPOCH   = 566
BSTAR          = .4782E-3
MEAN_MOTION_DOT = .16361E-3
MEAN_MOTION_DDOT = 0

CCSDS_OMM_VERS = 2.0
CREATION_DATE  = 
ORIGINATOR     = 

OBJECT_NAME    = KUIPER-00249
OBJECT_ID      = 2025-301X
CENTER_NAME    = EARTH
REF_FRAME      = TEME
TIME_SYSTEM    = UTC
MEAN_ELEMENT_THEORY = SGP/SGP4

EPOCH          = 2026-01-15T00:50:31.383744
MEAN_MOTION    = 15.35760507
ECCENTRICITY   = .0008363
INCLINATION    = 51.8678
RA_OF_ASC_NODE = 324.6349
ARG_OF_PERICENTER = 200.6614
MEAN_ANOMALY   = 159.4035

EPHEMERIS_TYPE = 0
CLASSIFICATION_TYPE = U
NORAD_CAT_ID   = 67154
ELEMENT_SET_NO = 999
REV_AT_EPOCH   = 548
BSTAR          = .64572E-3
MEAN_MOTION_DOT = .22512E-3
MEAN_MOTION_DDOT = 0

